NORAD_CAT_ID,OBJECT_NAME,OBJECT_TYPE,EPOCH,MEAN_MOTION,ECCENTRICITY,INCLINATION,RA_OF_ASC_NODE,ARG_OF_PERICENTER,MEAN_ANOMALY,BSTAR,MEAN_MOTION_DOT,MEAN_MOTION_DDOT,TLE_LINE0,TLE_LINE1,TLE_LINE2,SEMIMAJOR_AXIS,PERIOD,APOGEE,PERIGEE,DECAYED
50804.0,STARLINK-3323,PAYLOAD,2024-02-22 00:44:24,15.08840743,0.0001447,53.2176,271.0038,96.0009,264.1148,8.6207e-05,1.084e-05,0.0,0 STARLINK-3323,1 50804U 22001B   24053.03084066  .00001084  00000-0  86207-4 0  9993,2 50804  53.2176 271.0038 0001447  96.0009 264.1148 15.08840743119078,6917.878,95.438,540.744,538.742,0.0
50804.0,STARLINK-3323,PAYLOAD,2024-02-22 07:05:57,15.08837062,0.0001381,53.2165,269.8132,91.1848,268.9303,7.8115e-05,9.55e-06,0.0,0 STARLINK-3323,1 50804U 22001B   24053.29580404  .00000955  00000-0  78115-4 0  9993,2 50804  53.2165 269.8132 0001381  91.1848 268.9303 15.08837062117860,6917.889,95.438,540.71,538.799,0.0
50804.0,STARLINK-3323,PAYLOAD,2024-02-22 19:49:03,15.08834613,0.0001444,53.217,267.435,94.3007,265.815,-2.602e-05,-7.02e-06,0.0,0 STARLINK-3323,1 50804U 22001B   24053.82573081 -.00000702  00000-0 -26020-4 0  9995,2 50804  53.2170 267.4350 0001444  94.3007 265.8150 15.08834613119197,6917.897,95.438,540.761,538.763,0.0
50804.0,STARLINK-3323,PAYLOAD,2024-02-22 21:24:26,15.08834212,0.0001474,53.2173,267.1397,99.8197,260.2962,-2.5635e-05,-6.96e-06,0.0,0 STARLINK-3323,1 50804U 22001B   24053.89197109 -.00000696  00000-0 -25635-4 0  9998,2 50804  53.2173 267.1397 0001474  99.8197 260.2962 15.08834212117958,6917.898,95.438,540.783,538.743,0.0
50804.0,STARLINK-3323,PAYLOAD,2024-02-23 06:56:44,15.08838059,0.0001512,53.2177,265.3553,97.163,262.9534,-1.8545e-05,-5.83e-06,0.0,0 STARLINK-3323,1 50804U 22001B   24054.28940965 -.00000583  00000-0 -18545-4 0  9995,2 50804  53.2177 265.3553 0001512  97.1630 262.9534 15.08838059118017,6917.886,95.438,540.797,538.705,0.0
50804.0,STARLINK-3323,PAYLOAD,2024-02-23 21:15:13,15.08838916,0.0001448,53.2169,262.6769,91.5299,268.5859,5.7502e-05,6.27e-06,0.0,0 STARLINK-3323,1 50804U 22001B   24054.88556885  .00000627  00000-0  57502-4 0  9998,2 50804  53.2169 262.6769 0001448  91.5299 268.5859 15.08838916118108,6917.884,95.438,540.75,538.747,0.0
50804.0,STARLINK-3323,PAYLOAD,2024-02-23 22:50:36,15.08840617,0.0001443,53.2168,262.3793,89.814,270.3018,7.0531e-05,8.35e-06,0.0,0 STARLINK-3323,1 50804U 22001B   24054.95180748  .00000835  00000-0  70531-4 0  9995,2 50804  53.2168 262.3793 0001443  89.8140 270.3018 15.08840617119369,6917.879,95.438,540.742,538.745,0.0
50804.0,STARLINK-3323,PAYLOAD,2024-02-24 13:09:04,15.08842028,0.0001432,53.2167,259.7038,89.2562,270.8594,0.00012829,1.754e-05,0.0,0 STARLINK-3323,1 50804U 22001B   24055.54796594  .00001754  00000-0  12829-3 0  9999,2 50804  53.2167 259.7038 0001432  89.2562 270.8594 15.08842028118204,6917.874,95.437,540.73,538.749,0.0
50804.0,STARLINK-3323,PAYLOAD,2024-02-25 06:38:18,15.08845272,0.0001414,53.2163,256.4323,87.9926,272.1228,0.0001297,1.777e-05,0.0,0 STARLINK-3323,1 50804U 22001B   24056.27660325  .00001777  00000-0  12970-3 0  9994,2 50804  53.2163 256.4323 0001414  87.9926 272.1228 15.08845272119563,6917.864,95.437,540.707,538.751,0.0
50804.0,STARLINK-3323,PAYLOAD,2024-02-25 12:59:51,15.08846074,0.0001467,53.2163,255.2429,87.7281,272.3879,0.00012259,1.664e-05,0.0,0 STARLINK-3323,1 50804U 22001B   24056.54156267  .00001664  00000-0  12259-3 0  9994,2 50804  53.2163 255.2429 0001467  87.7281 272.3879 15.08846074118358,6917.862,95.437,540.742,538.712,0.0
50804.0,STARLINK-3323,PAYLOAD,2024-02-25 19:21:23,15.08848584,0.0001358,53.2154,254.0533,90.1515,269.9633,0.00014476,2.017e-05,0.0,0 STARLINK-3323,1 50804U 22001B   24056.80651936  .00002017  00000-0  14476-3 0  9992,2 50804  53.2154 254.0533 0001358  90.1515 269.9633 15.08848584118390,6917.854,95.437,540.659,538.78,0.0
50804.0,STARLINK-3323,PAYLOAD,2024-02-26 19:12:10,15.08841723,0.0001192,53.2147,249.5936,85.4347,274.6781,7.0096e-06,-1.76e-06,0.0,0 STARLINK-3323,1 50804U 22001B   24057.80012425 -.00000176  00000-0  70096-5 0  9994,2 50804  53.2147 249.5936 0001192  85.4347 274.6781 15.08841723119794,6917.875,95.437,540.565,538.916,0.0
50804.0,STARLINK-3323,PAYLOAD,2024-02-26 22:22:56,15.08843417,0.0001196,53.2143,248.998,88.149,271.9639,1.7849e-05,-4e-08,0.0,0 STARLINK-3323,1 50804U 22001B   24057.93260230 -.00000004  00000-0  17849-4 0  9993,2 50804  53.2143 248.9980 0001196  88.1490 271.9639 15.08843417118563,6917.87,95.437,540.562,538.908,0.0
50804.0,STARLINK-3323,PAYLOAD,2024-02-27 12:41:26,15.08829634,0.0001698,53.2172,246.3213,94.1072,266.0115,-2.1523e-05,-6.3e-06,0.0,0 STARLINK-3323,1 50804U 22001B   24058.52877381 -.00000630  00000-0 -21523-4 0  9990,2 50804  53.2172 246.3213 0001698  94.1072 266.0115 15.08829634119904,6917.912,95.438,540.952,538.602,0.0
50804.0,STARLINK-3323,PAYLOAD,2024-02-27 19:02:58,15.08831235,0.0001631,53.2161,245.132,98.1983,261.9194,-6.4872e-05,-1.32e-05,0.0,0 STARLINK-3323,1 50804U 22001B   24058.79373475 -.00001320  00000-0 -64872-4 0  9995,2 50804  53.2161 245.1320 0001631  98.1983 261.9194 15.08831235118696,6917.907,95.438,540.9,538.644,0.0
50804.0,STARLINK-3323,PAYLOAD,2024-02-28 12:32:12,15.08834065,0.0001755,53.2178,241.8619,115.3868,244.7306,5.5115e-05,5.89e-06,0.0,0 STARLINK-3323,1 50804U 22001B   24059.52237203  .00000589  00000-0  55115-4 0  9999,2 50804  53.2178 241.8619 0001755 115.3868 244.7306 15.08834065120050,6917.899,95.438,540.978,538.549,0.0
50804.0,STARLINK-3323,PAYLOAD,2024-02-28 18:53:45,15.08840123,0.0001613,53.2169,240.673,108.8372,251.2796,7.971e-05,9.81e-06,0.0,0 STARLINK-3323,1 50804U 22001B   24059.78732893  .00000981  00000-0  79710-4 0  9995,2 50804  53.2169 240.6730 0001613 108.8372 251.2796 15.08840123118843,6917.88,95.438,540.861,538.629,0.0
50804.0,STARLINK-3323,PAYLOAD,2024-02-29 12:23:00,15.08829703,0.0001801,53.2171,237.4017,100.5693,259.5502,0.00011139,1.485e-05,0.0,0 STARLINK-3323,1 50804U 22001B   24060.51597896  .00001485  00000-0  11139-3 0  9990,2 50804  53.2171 237.4017 0001801 100.5693 259.5502 15.08829703118951,6917.912,95.438,541.023,538.531,0.0
50804.0,STARLINK-3323,PAYLOAD,2024-02-29 18:44:33,15.088329,0.0001808,53.2174,236.2126,100.5847,259.5349,0.00012578,1.714e-05,0.0,0 STARLINK-3323,1 50804U 22001B   24060.78093808  .00001714  00000-0  12578-3 0  9996,2 50804  53.2174 236.2126 0001808 100.5847 259.5349 15.08832900120247,6917.902,95.438,541.018,538.516,0.0
50804.0,STARLINK-3323,PAYLOAD,2024-02-29 21:55:19,15.08836346,0.0001823,53.2174,235.6175,100.3449,259.7749,0.00013491,1.859e-05,0.0,0 STARLINK-3323,1 50804U 22001B   24060.91341633  .00001859  00000-0  13491-3 0  9998,2 50804  53.2174 235.6175 0001823 100.3449 259.7749 15.08836346119014,6917.892,95.438,541.018,538.495,0.0
50804.0,STARLINK-3323,PAYLOAD,2024-03-01 04:16:51,15.08835597,0.0001821,53.2174,234.4278,99.2948,260.825,0.00012256,1.663e-05,0.0,0 STARLINK-3323,1 50804U 22001B   24061.17837851  .00001663  00000-0  12256-3 0  9990,2 50804  53.2174 234.4278 0001821  99.2948 260.8250 15.08835597119054,6917.894,95.438,541.019,538.499,0.0
50804.0,STARLINK-3323,PAYLOAD,2024-03-01 18:35:19,15.08851219,0.0001684,53.2162,231.7508,104.1582,255.9597,0.00014454,2.014e-05,0.0,0 STARLINK-3323,1 50804U 22001B   24061.77452638  .00002014  00000-0  14454-3 0  9995,2 50804  53.2162 231.7508 0001684 104.1582 255.9597 15.08851219120391,6917.846,95.437,540.876,538.546,0.0
50804.0,STARLINK-3323,PAYLOAD,2024-03-02 18:26:06,15.08844603,0.0001404,53.2157,227.2901,95.2235,264.8918,9.9571e-05,1.297e-05,0.0,0 STARLINK-3323,1 50804U 22001B   24062.76813002  .00001297  00000-0  99571-4 0  9997,2 50804  53.2157 227.2901 0001404  95.2235 264.8918 15.08844603120549,6917.866,95.437,540.703,538.76,0.0
50804.0,STARLINK-3323,PAYLOAD,2024-03-03 03:58:25,15.08838885,0.0001406,53.2155,225.5067,91.1671,268.9482,0.00011588,1.557e-05,0.0,0 STARLINK-3323,1 50804U 22001B   24063.16557325  .00001557  00000-0  11588-3 0  9995,2 50804  53.2155 225.5067 0001406  91.1671 268.9482 15.08838885120605,6917.884,95.438,540.721,538.776,0.0
50804.0,STARLINK-3323,PAYLOAD,2024-03-03 15:06:07,15.08841481,0.0001447,53.2155,223.4252,89.0763,271.0395,2.1382e-06,-2.54e-06,0.0,0 STARLINK-3323,1 50804U 22001B   24063.62925334 -.00000254  00000-0  21382-5 0  9994,2 50804  53.2155 223.4252 0001447  89.0763 271.0395 15.08841481119423,6917.876,95.437,540.742,538.74,0.0
50804.0,STARLINK-3323,PAYLOAD,2024-03-03 18:16:53,15.088482,0.000148,53.2172,222.8287,82.8645,277.2516,-2.3407e-06,-3.25e-06,0.0,0 STARLINK-3323,1 50804U 22001B   24063.76172861 -.00000325  00000-0 -23407-5 0  9998,2 50804  53.2172 222.8287 0001480  82.8645 277.2516 15.08848200119441,6917.855,95.437,540.744,538.696,0.0
50804.0,STARLINK-3323,PAYLOAD,2024-03-04 14:56:53,15.08838107,0.0001612,53.2173,218.963,99.47,260.6474,0.00033181,4.996e-05,0.0,0 STARLINK-3323,1 50804U 22001B   24064.62283946  .00004996  00000-0  33181-3 0  9995,2 50804  53.2173 218.9630 0001612  99.4700 260.6474 15.08838107119571,6917.886,95.438,540.866,538.636,0.0
50804.0,STARLINK-3323,PAYLOAD,2024-03-05 14:47:41,15.08833473,0.0001641,53.2187,214.5001,109.6595,250.4574,-1.5008e-05,-5.27e-06,0.0,0 STARLINK-3323,1 50804U 22001B   24065.61645311 -.00000527  00000-0 -15008-4 0  9990,2 50804  53.2187 214.5001 0001641 109.6595 250.4574 15.08833473119724,6917.9,95.438,540.901,538.63,0.0
50804.0,STARLINK-3323,PAYLOAD,2024-03-05 16:23:05,15.08831659,0.0001217,53.2171,214.2059,92.5486,267.5646,-9.4019e-05,-1.783e-05,0.0,0 STARLINK-3323,1 50804U 22001B   24065.68269776 -.00001783  00000-0 -94019-4 0  9998,2 50804  53.2171 214.2059 0001217  92.5486 267.5646 15.08831659120988,6917.906,95.438,540.613,538.929,0.0
50804.0,STARLINK-3323,PAYLOAD,2024-03-06 13:03:05,15.08840403,0.0001295,53.2185,210.3422,95.5312,264.5828,-9.3508e-05,-1.776e-05,0.0,0 STARLINK-3323,1 50804U 22001B   24066.54381696 -.00001776  00000-0 -93508-4 0  9994,2 50804  53.2185 210.3422 0001295  95.5312 264.5828 15.08840403119862,6917.879,95.438,540.64,538.848,0.0
